[{"OBJECT_NAME":"BEIDOU-3 M28 (C50)","OBJECT_ID":"2023-207A","EPOCH":"2026-06-25T21:22:28.718688","MEAN_MOTION":1.86229879,"ECCENTRICITY":0.0003002,"INCLINATION":55.7603,"RA_OF_ASC_NODE":62.0093,"ARG_OF_PERICENTER":352.5208,"MEAN_ANOMALY":7.5157,"EPHEMERIS_TYPE":0,"CLASSIFICATION_TYPE":"U","NORAD_CAT_ID":58654,"ELEMENT_SET_NO":999,"REV_AT_EPOCH":1700,"BSTAR":0,"MEAN_MOTION_DOT":-9.0e-7,"MEAN_MOTION_DDOT":0},{"OBJECT_NAME":"BEIDOU-3 M26 (C48)","OBJECT_ID":"2023-207B","EPOCH":"2026-06-26T05:24:05.823360","MEAN_MOTION":1.86229867,"ECCENTRICITY":0.0002695,"INCLINATION":55.7629,"RA_OF_ASC_NODE":61.9846,"ARG_OF_PERICENTER":322.2397,"MEAN_ANOMALY":37.7837,"EPHEMERIS_TYPE":0,"CLASSIFICATION_TYPE":"U","NORAD_CAT_ID":58655,"ELEMENT_SET_NO":999,"REV_AT_EPOCH":1699,"BSTAR":0,"MEAN_MOTION_DOT":-8.8e-7,"MEAN_MOTION_DDOT":0},{"OBJECT_NAME":"GSAT0225 (GALILEO 29)","OBJECT_ID":"2024-079A","EPOCH":"2026-06-24T18:13:09.659712","MEAN_MOTION":1.70474128,"ECCENTRICITY":0.00017428,"INCLINATION":55.124,"RA_OF_ASC_NODE":100.8683,"ARG_OF_PERICENTER":297.9493,"MEAN_ANOMALY":254.808,"EPHEMERIS_TYPE":0,"CLASSIFICATION_TYPE":"U","NORAD_CAT_ID":59598,"ELEMENT_SET_NO":999,"REV_AT_EPOCH":1344,"BSTAR":0,"MEAN_MOTION_DOT":-3.8e-7,"MEAN_MOTION_DDOT":0},{"OBJECT_NAME":"GSAT0227 (GALILEO 30)","OBJECT_ID":"2024-079C","EPOCH":"2026-06-23T10:55:38.202528","MEAN_MOTION":1.70473918,"ECCENTRICITY":0.00024194,"INCLINATION":55.1185,"RA_OF_ASC_NODE":100.9033,"ARG_OF_PERICENTER":58.0764,"MEAN_ANOMALY":301.9236,"EPHEMERIS_TYPE":0,"CLASSIFICATION_TYPE":"U","NORAD_CAT_ID":59600,"ELEMENT_SET_NO":999,"REV_AT_EPOCH":1347,"BSTAR":0,"MEAN_MOTION_DOT":-3.3e-7,"MEAN_MOTION_DDOT":0},{"OBJECT_NAME":"GSAT0232 (GALILEO 32)","OBJECT_ID":"2024-167A","EPOCH":"2026-06-26T03:53:28.464864","MEAN_MOTION":1.70474496,"ECCENTRICITY":0.0006275,"INCLINATION":55.1828,"RA_OF_ASC_NODE":221.0673,"ARG_OF_PERICENTER":229.7738,"MEAN_ANOMALY":207.0709,"EPHEMERIS_TYPE":0,"CLASSIFICATION_TYPE":"U","NORAD_CAT_ID":61182,"ELEMENT_SET_NO":999,"REV_AT_EPOCH":1103,"BSTAR":0,"MEAN_MOTION_DOT":6.2e-7,"MEAN_MOTION_DDOT":0},{"OBJECT_NAME":"GSAT0226 (GALILEO 31)","OBJECT_ID":"2024-167B","EPOCH":"2026-06-26T11:30:20.311200","MEAN_MOTION":1.70474505,"ECCENTRICITY":0.0002937,"INCLINATION":55.1816,"RA_OF_ASC_NODE":221.0657,"ARG_OF_PERICENTER":230.4036,"MEAN_ANOMALY":132.4929,"EPHEMERIS_TYPE":0,"CLASSIFICATION_TYPE":"U","NORAD_CAT_ID":61183,"ELEMENT_SET_NO":999,"REV_AT_EPOCH":1101,"BSTAR":0,"MEAN_MOTION_DOT":6.4e-7,"MEAN_MOTION_DDOT":0},{"OBJECT_NAME":"BEIDOU-3 M25 (C47)","OBJECT_ID":"2024-168B","EPOCH":"2026-06-26T16:31:15.592224","MEAN_MOTION":1.86230369,"ECCENTRICITY":0.0003152,"INCLINATION":54.4642,"RA_OF_ASC_NODE":301.9122,"ARG_OF_PERICENTER":298.5608,"MEAN_ANOMALY":129.4741,"EPHEMERIS_TYPE":0,"CLASSIFICATION_TYPE":"U","NORAD_CAT_ID":61186,"ELEMENT_SET_NO":999,"REV_AT_EPOCH":1196,"BSTAR":0,"MEAN_MOTION_DOT":-1.0e-6,"MEAN_MOTION_DDOT":0},{"OBJECT_NAME":"BEIDOU-3 M27 (C49)","OBJECT_ID":"2024-168C","EPOCH":"2026-06-26T15:47:15.594432","MEAN_MOTION":1.86230428,"ECCENTRICITY":0.0001371,"INCLINATION":54.4594,"RA_OF_ASC_NODE":301.8961,"ARG_OF_PERICENTER":48.4457,"MEAN_ANOMALY":134.1335,"EPHEMERIS_TYPE":0,"CLASSIFICATION_TYPE":"U","NORAD_CAT_ID":61187,"ELEMENT_SET_NO":999,"REV_AT_EPOCH":943,"BSTAR":0,"MEAN_MOTION_DOT":-1.0e-6,"MEAN_MOTION_DDOT":0},{"OBJECT_NAME":"GPS BIII-7  (PRN 01)","OBJECT_ID":"2024-242A","EPOCH":"2026-06-26T01:37:41.317248","MEAN_MOTION":2.00572026,"ECCENTRICITY":0.00176661,"INCLINATION":54.8454,"RA_OF_ASC_NODE":333.821,"ARG_OF_PERICENTER":4.5395,"MEAN_ANOMALY":177.0108,"EPHEMERIS_TYPE":0,"CLASSIFICATION_TYPE":"U","NORAD_CAT_ID":62339,"ELEMENT_SET_NO":999,"REV_AT_EPOCH":1143,"BSTAR":0,"MEAN_MOTION_DOT":-1.06e-6,"MEAN_MOTION_DDOT":0},{"OBJECT_NAME":"QZS-6 (QZSS/PRN 200)","OBJECT_ID":"2025-023A","EPOCH":"2026-06-25T14:29:38.518656","MEAN_MOTION":1.00273214,"ECCENTRICITY":0.00019858,"INCLINATION":0.0573,"RA_OF_ASC_NODE":280.3752,"ARG_OF_PERICENTER":187.0073,"MEAN_ANOMALY":114.2719,"EPHEMERIS_TYPE":0,"CLASSIFICATION_TYPE":"U","NORAD_CAT_ID":62876,"ELEMENT_SET_NO":999,"REV_AT_EPOCH":503,"BSTAR":0,"MEAN_MOTION_DOT":-2.23e-6,"MEAN_MOTION_DDOT":0},{"OBJECT_NAME":"GPS BIII-8  (PRN 21)","OBJECT_ID":"2025-116A","EPOCH":"2026-06-25T19:29:21.229728","MEAN_MOTION":2.00575516,"ECCENTRICITY":0.00082796,"INCLINATION":55.2403,"RA_OF_ASC_NODE":30.7831,"ARG_OF_PERICENTER":342.501,"MEAN_ANOMALY":197.3025,"EPHEMERIS_TYPE":0,"CLASSIFICATION_TYPE":"U","NORAD_CAT_ID":64202,"ELEMENT_SET_NO":999,"REV_AT_EPOCH":804,"BSTAR":0,"MEAN_MOTION_DOT":-8.9e-7,"MEAN_MOTION_DDOT":0},{"OBJECT_NAME":"COSMOS 2596 (708K)","OBJECT_ID":"2025-206B","EPOCH":"2026-06-24T23:11:42.537984","MEAN_MOTION":2.13100978,"ECCENTRICITY":0.00110095,"INCLINATION":64.6296,"RA_OF_ASC_NODE":314.7142,"ARG_OF_PERICENTER":310.6805,"MEAN_ANOMALY":49.5796,"EPHEMERIS_TYPE":0,"CLASSIFICATION_TYPE":"U","NORAD_CAT_ID":65590,"ELEMENT_SET_NO":999,"REV_AT_EPOCH":608,"BSTAR":0,"MEAN_MOTION_DOT":-8.6e-7,"MEAN_MOTION_DDOT":0},{"OBJECT_NAME":"GSAT0233 (GALILEO 33)","OBJECT_ID":"2025-302A","EPOCH":"2026-06-24T02:17:01.853376","MEAN_MOTION":1.70474189,"ECCENTRICITY":8.23e-5,"INCLINATION":54.3398,"RA_OF_ASC_NODE":101.9339,"ARG_OF_PERICENTER":209.8671,"MEAN_ANOMALY":226.2605,"EPHEMERIS_TYPE":0,"CLASSIFICATION_TYPE":"U","NORAD_CAT_ID":67160,"ELEMENT_SET_NO":999,"REV_AT_EPOCH":324,"BSTAR":0,"MEAN_MOTION_DOT":-3.5e-7,"MEAN_MOTION_DDOT":0},{"OBJECT_NAME":"GSAT0234 (GALILEO 34)","OBJECT_ID":"2025-302C","EPOCH":"2026-06-26T07:27:50.069088","MEAN_MOTION":1.70474228,"ECCENTRICITY":0.0002967,"INCLINATION":54.3424,"RA_OF_ASC_NODE":101.8702,"ARG_OF_PERICENTER":307.0359,"MEAN_ANOMALY":229.1139,"EPHEMERIS_TYPE":0,"CLASSIFICATION_TYPE":"U","NORAD_CAT_ID":67162,"ELEMENT_SET_NO":999,"REV_AT_EPOCH":333,"BSTAR":0,"MEAN_MOTION_DOT":-3.8e-7,"MEAN_MOTION_DDOT":0},{"OBJECT_NAME":"GPS BIII-9  (PRN 20)","OBJECT_ID":"2026-017A","EPOCH":"2026-06-26T04:06:49.737600","MEAN_MOTION":2.00570994,"ECCENTRICITY":0.0021485,"INCLINATION":55.0939,"RA_OF_ASC_NODE":88.3946,"ARG_OF_PERICENTER":258.6377,"MEAN_ANOMALY":101.1236,"EPHEMERIS_TYPE":0,"CLASSIFICATION_TYPE":"U","NORAD_CAT_ID":67588,"ELEMENT_SET_NO":999,"REV_AT_EPOCH":43179,"BSTAR":0,"MEAN_MOTION_DOT":-6.8e-7,"MEAN_MOTION_DDOT":0},{"OBJECT_NAME":"GPS BIII-10 (PRN 13)","OBJECT_ID":"2026-087A","EPOCH":"2026-06-22T15:38:01.863744","MEAN_MOTION":2.00570839,"ECCENTRICITY":0.00206819,"INCLINATION":54.9627,"RA_OF_ASC_NODE":207.5713,"ARG_OF_PERICENTER":106.6591,"MEAN_ANOMALY":76.9843,"EPHEMERIS_TYPE":0,"CLASSIFICATION_TYPE":"U","NORAD_CAT_ID":68791,"ELEMENT_SET_NO":999,"REV_AT_EPOCH":94,"BSTAR":0,"MEAN_MOTION_DOT":5.8e-7,"MEAN_MOTION_DDOT":0}]
